SL-14 R/B               
1 16792U 86046B   26032.16581942  .00000530  00000+0  58292-4 0  9995
2 16792  82.4826 114.6943 0022837 352.5680   7.5194 14.85553048120985
SL-14 R/B               
1 16882U 86055B   26031.83559189  .00000670  00000+0  74329-4 0  9990
2 16882  82.5228 161.3011 0020414  94.0083  19.4621 14.85600548113898
AJISAI (EGS)            
1 16908U 86061A   26032.19831972 -.00000106  00000+0 -62014-4 0  9993
2 16908  50.0065 205.5587 0011248 193.0953 337.0429 12.44515348463457
COSMOS 1812             
1 17295U 87003A   26032.01298020  .00187695  11485-4  60072-3 0  9994
2 17295  82.4787 237.0480 0000818  16.3487 343.7812 15.90955339138607
SL-14 R/B               
1 17567U 87024B   26032.01053630  .00000556  00000+0  60535-4 0  9996
2 17567  82.5299 127.2338 0018851  26.6375 333.5805 14.86094396 82682
COSMOS 1833             
1 17589U 87027A   26032.26209454  .00000142  00000+0  10166-3 0  9992
2 17589  70.9203  42.5778 0024756 263.0053  96.8252 14.13054290  5173
SL-16 R/B               
1 17590U 87027B   26032.12949097  .00000175  00000+0  11060-3 0  9993
2 17590  71.0046 353.5340 0005505 202.9669 157.1209 14.17162819 10167
SL-14 R/B               
1 17912U 87038B   26031.91922898  .00000617  00000+0  68896-4 0  9990
2 17912  82.5041 331.4369 0017771 288.0189  71.9090 14.85329095 73776
COSMOS 1844             
1 17973U 87041A   26031.62859243  .00000060  00000+0  56246-4 0  9990
2 17973  70.8983 112.3502 0028609  77.4425 282.9894 14.14535111998343
SL-14 R/B               
1 18153U 87055B   26031.43103641  .00000588  00000+0  64916-4 0  9997
2 18153  82.4983  24.1443 0021788 133.7111 226.5915 14.85581640 64401
COSMOS 1867             
1 18187U 87060A   26032.04332287 -.00000006  00000+0  35463-4 0  9999
2 18187  65.0104  49.3308 0014029 275.9000  84.0486 14.31496678 14698
SL-14 R/B               
1 18749U 88001B   26031.89533446  .00000491  00000+0  54036-4 0  9995
2 18749  82.5104 229.9700 0018184   4.9707 355.1686 14.85482979 36560
