CCSDS_OMM_VERS = 2.0
CREATION_DATE  = 
ORIGINATOR     = 

OBJECT_NAME    = SL-14 R/B
OBJECT_ID      = 1986-046B
CENTER_NAME    = EARTH
REF_FRAME      = TEME
TIME_SYSTEM    = UTC
MEAN_ELEMENT_THEORY = SGP/SGP4

EPOCH          = 2026-02-01T03:58:46.797888
MEAN_MOTION    = 14.85553048
ECCENTRICITY   = .00228376
INCLINATION    = 82.4826
RA_OF_ASC_NODE = 114.6943
ARG_OF_PERICENTER = 352.5680
MEAN_ANOMALY   = 7.5194

EPHEMERIS_TYPE = 0
CLASSIFICATION_TYPE = U
NORAD_CAT_ID   = 16792
ELEMENT_SET_NO = 999
REV_AT_EPOCH   = 12098
BSTAR          = .5829153E-4
MEAN_MOTION_DOT = .53E-5
MEAN_MOTION_DDOT = 0

CCSDS_OMM_VERS = 2.0
CREATION_DATE  = 
ORIGINATOR     = 

OBJECT_NAME    = SL-14 R/B
OBJECT_ID      = 1986-055B
CENTER_NAME    = EARTH
REF_FRAME      = TEME
TIME_SYSTEM    = UTC
MEAN_ELEMENT_THEORY = SGP/SGP4

EPOCH          = 2026-01-31T20:03:15.139296
MEAN_MOTION    = 14.85600548
ECCENTRICITY   = .00204145
INCLINATION    = 82.5228
RA_OF_ASC_NODE = 161.3011
ARG_OF_PERICENTER = 94.0083
MEAN_ANOMALY   = 19.4621

EPHEMERIS_TYPE = 0
CLASSIFICATION_TYPE = U
NORAD_CAT_ID   = 16882
ELEMENT_SET_NO = 999
REV_AT_EPOCH   = 11389
BSTAR          = .74328848E-4
MEAN_MOTION_DOT = .67E-5
MEAN_MOTION_DDOT = 0

CCSDS_OMM_VERS = 2.0
CREATION_DATE  = 
ORIGINATOR     = 

OBJECT_NAME    = AJISAI (EGS)
OBJECT_ID      = 1986-061A
CENTER_NAME    = EARTH
REF_FRAME      = TEME
TIME_SYSTEM    = UTC
MEAN_ELEMENT_THEORY = SGP/SGP4

EPOCH          = 2026-02-01T04:45:34.823808
MEAN_MOTION    = 12.44515348
ECCENTRICITY   = .00112485
INCLINATION    = 50.0065
RA_OF_ASC_NODE = 205.5587
ARG_OF_PERICENTER = 193.0953
MEAN_ANOMALY   = 337.0429

EPHEMERIS_TYPE = 0
CLASSIFICATION_TYPE = U
NORAD_CAT_ID   = 16908
ELEMENT_SET_NO = 999
REV_AT_EPOCH   = 46345
BSTAR          = -.62013917E-4
MEAN_MOTION_DOT = -.106E-5
MEAN_MOTION_DDOT = 0

CCSDS_OMM_VERS = 2.0
CREATION_DATE  = 
ORIGINATOR     = 

OBJECT_NAME    = COSMOS 1812
OBJECT_ID      = 1987-003A
CENTER_NAME    = EARTH
REF_FRAME      = TEME
TIME_SYSTEM    = UTC
MEAN_ELEMENT_THEORY = SGP/SGP4

EPOCH          = 2026-02-01T00:18:41.489280
MEAN_MOTION    = 15.90955339
ECCENTRICITY   = .00008183
INCLINATION    = 82.4787
RA_OF_ASC_NODE = 237.0480
ARG_OF_PERICENTER = 16.3487
MEAN_ANOMALY   = 343.7812

EPHEMERIS_TYPE = 0
CLASSIFICATION_TYPE = U
NORAD_CAT_ID   = 17295
ELEMENT_SET_NO = 999
REV_AT_EPOCH   = 13860
BSTAR          = .60071776E-3
MEAN_MOTION_DOT = .187695E-2
MEAN_MOTION_DDOT = .11485369E-4

CCSDS_OMM_VERS = 2.0
CREATION_DATE  = 
ORIGINATOR     = 

OBJECT_NAME    = SL-14 R/B
OBJECT_ID      = 1987-024B
CENTER_NAME    = EARTH
REF_FRAME      = TEME
TIME_SYSTEM    = UTC
MEAN_ELEMENT_THEORY = SGP/SGP4

EPOCH          = 2026-02-01T00:15:10.336320
MEAN_MOTION    = 14.86094396
ECCENTRICITY   = .00188519
INCLINATION    = 82.5299
RA_OF_ASC_NODE = 127.2338
ARG_OF_PERICENTER = 26.6375
MEAN_ANOMALY   = 333.5805

EPHEMERIS_TYPE = 0
CLASSIFICATION_TYPE = U
NORAD_CAT_ID   = 17567
ELEMENT_SET_NO = 999
REV_AT_EPOCH   = 8268
BSTAR          = .60535389E-4
MEAN_MOTION_DOT = .556E-5
MEAN_MOTION_DDOT = 0

CCSDS_OMM_VERS = 2.0
CREATION_DATE  = 
ORIGINATOR     = 

OBJECT_NAME    = COSMOS 1833
OBJECT_ID      = 1987-027A
CENTER_NAME    = EARTH
REF_FRAME      = TEME
TIME_SYSTEM    = UTC
MEAN_ELEMENT_THEORY = SGP/SGP4

EPOCH          = 2026-02-01T06:17:24.968256
MEAN_MOTION    = 14.13054290
ECCENTRICITY   = .00247567
INCLINATION    = 70.9203
RA_OF_ASC_NODE = 42.5778
ARG_OF_PERICENTER = 263.0053
MEAN_ANOMALY   = 96.8252

EPHEMERIS_TYPE = 0
CLASSIFICATION_TYPE = U
NORAD_CAT_ID   = 17589
ELEMENT_SET_NO = 999
REV_AT_EPOCH   = 517
BSTAR          = .10165866E-3
MEAN_MOTION_DOT = .142E-5
MEAN_MOTION_DDOT = 0

CCSDS_OMM_VERS = 2.0
CREATION_DATE  = 
ORIGINATOR     = 

OBJECT_NAME    = SL-16 R/B
OBJECT_ID      = 1987-027B
CENTER_NAME    = EARTH
REF_FRAME      = TEME
TIME_SYSTEM    = UTC
MEAN_ELEMENT_THEORY = SGP/SGP4

EPOCH          = 2026-02-01T03:06:28.019808
MEAN_MOTION    = 14.17162819
ECCENTRICITY   = .00055057
INCLINATION    = 71.0046
RA_OF_ASC_NODE = 353.5340
ARG_OF_PERICENTER = 202.9669
MEAN_ANOMALY   = 157.1209

EPHEMERIS_TYPE = 0
CLASSIFICATION_TYPE = U
NORAD_CAT_ID   = 17590
ELEMENT_SET_NO = 999
REV_AT_EPOCH   = 1016
BSTAR          = .11060078E-3
MEAN_MOTION_DOT = .175E-5
MEAN_MOTION_DDOT = 0

CCSDS_OMM_VERS = 2.0
CREATION_DATE  = 
ORIGINATOR     = 

OBJECT_NAME    = SL-14 R/B
OBJECT_ID      = 1987-038B
CENTER_NAME    = EARTH
REF_FRAME      = TEME
TIME_SYSTEM    = UTC
MEAN_ELEMENT_THEORY = SGP/SGP4

EPOCH          = 2026-01-31T22:03:41.383872
MEAN_MOTION    = 14.85329095
ECCENTRICITY   = .00177717
INCLINATION    = 82.5041
RA_OF_ASC_NODE = 331.4369
ARG_OF_PERICENTER = 288.0189
MEAN_ANOMALY   = 71.9090

EPHEMERIS_TYPE = 0
CLASSIFICATION_TYPE = U
NORAD_CAT_ID   = 17912
ELEMENT_SET_NO = 999
REV_AT_EPOCH   = 7377
BSTAR          = .68896281E-4
MEAN_MOTION_DOT = .617E-5
MEAN_MOTION_DDOT = 0

CCSDS_OMM_VERS = 2.0
CREATION_DATE  = 
ORIGINATOR     = 

OBJECT_NAME    = COSMOS 1844
OBJECT_ID      = 1987-041A
CENTER_NAME    = EARTH
REF_FRAME      = TEME
TIME_SYSTEM    = UTC
MEAN_ELEMENT_THEORY = SGP/SGP4

EPOCH          = 2026-01-31T15:05:10.385952
MEAN_MOTION    = 14.14535111
ECCENTRICITY   = .00286092
INCLINATION    = 70.8983
RA_OF_ASC_NODE = 112.3502
ARG_OF_PERICENTER = 77.4425
MEAN_ANOMALY   = 282.9894

EPHEMERIS_TYPE = 0
CLASSIFICATION_TYPE = U
NORAD_CAT_ID   = 17973
ELEMENT_SET_NO = 999
REV_AT_EPOCH   = 99834
BSTAR          = .56245979E-4
MEAN_MOTION_DOT = .6E-6
MEAN_MOTION_DDOT = 0

CCSDS_OMM_VERS = 2.0
CREATION_DATE  = 
ORIGINATOR     = 

OBJECT_NAME    = SL-14 R/B
OBJECT_ID      = 1987-055B
CENTER_NAME    = EARTH
REF_FRAME      = TEME
TIME_SYSTEM    = UTC
MEAN_ELEMENT_THEORY = SGP/SGP4

EPOCH          = 2026-01-31T10:20:41.545824
MEAN_MOTION    = 14.85581640
ECCENTRICITY   = .00217884
INCLINATION    = 82.4983
RA_OF_ASC_NODE = 24.1443
ARG_OF_PERICENTER = 133.7111
MEAN_ANOMALY   = 226.5915

EPHEMERIS_TYPE = 0
CLASSIFICATION_TYPE = U
NORAD_CAT_ID   = 18153
ELEMENT_SET_NO = 999
REV_AT_EPOCH   = 6440
BSTAR          = .64915557E-4
MEAN_MOTION_DOT = .588E-5
MEAN_MOTION_DDOT = 0

CCSDS_OMM_VERS = 2.0
CREATION_DATE  = 
ORIGINATOR     = 

OBJECT_NAME    = COSMOS 1867
OBJECT_ID      = 1987-060A
CENTER_NAME    = EARTH
REF_FRAME      = TEME
TIME_SYSTEM    = UTC
MEAN_ELEMENT_THEORY = SGP/SGP4

EPOCH          = 2026-02-01T01:02:23.095968
MEAN_MOTION    = 14.31496678
ECCENTRICITY   = .0014029
INCLINATION    = 65.0104
RA_OF_ASC_NODE = 49.3308
ARG_OF_PERICENTER = 275.9000
MEAN_ANOMALY   = 84.0486

EPHEMERIS_TYPE = 0
CLASSIFICATION_TYPE = U
NORAD_CAT_ID   = 18187
ELEMENT_SET_NO = 999
REV_AT_EPOCH   = 1469
BSTAR          = .35463001E-4
MEAN_MOTION_DOT = -.6E-7
MEAN_MOTION_DDOT = 0

CCSDS_OMM_VERS = 2.0
CREATION_DATE  = 
ORIGINATOR     = 

OBJECT_NAME    = SL-14 R/B
OBJECT_ID      = 1988-001B
CENTER_NAME    = EARTH
REF_FRAME      = TEME
TIME_SYSTEM    = UTC
MEAN_ELEMENT_THEORY = SGP/SGP4

EPOCH          = 2026-01-31T21:29:16.897344
MEAN_MOTION    = 14.85482979
ECCENTRICITY   = .00181841
INCLINATION    = 82.5104
RA_OF_ASC_NODE = 229.9700
ARG_OF_PERICENTER = 4.9707
MEAN_ANOMALY   = 355.1686

EPHEMERIS_TYPE = 0
CLASSIFICATION_TYPE = U
NORAD_CAT_ID   = 18749
ELEMENT_SET_NO = 999
REV_AT_EPOCH   = 3656
BSTAR          = .54036103E-4
MEAN_MOTION_DOT = .491E-5
MEAN_MOTION_DDOT = 0

